NORAD_CAT_ID,OBJECT_NAME,OBJECT_TYPE,EPOCH,MEAN_MOTION,ECCENTRICITY,INCLINATION,RA_OF_ASC_NODE,ARG_OF_PERICENTER,MEAN_ANOMALY,BSTAR,MEAN_MOTION_DOT,MEAN_MOTION_DDOT,TLE_LINE0,TLE_LINE1,TLE_LINE2,SEMIMAJOR_AXIS,PERIOD,APOGEE,PERIGEE,DECAYED
56777.0,STARLINK-5582,PAYLOAD,2024-06-08 04:26:52,14.98330188,0.0003123,69.9988,157.0757,270.3285,89.7516,5.3968e-05,5.51e-06,0.0,0 STARLINK-5582,1 56777U 23078L   24160.18533108  .00000551  00000-0  53968-4 0  9990,2 56777  69.9988 157.0757 0003123 270.3285  89.7516 14.98330188 57149,6950.192,96.107,574.228,569.887,0.0
56777.0,STARLINK-5582,PAYLOAD,2024-06-08 09:15:16,14.98331148,0.0003113,69.9988,156.5708,270.2817,89.7986,6.0943e-05,6.34e-06,0.0,0 STARLINK-5582,1 56777U 23078L   24160.38561024  .00000634  00000-0  60943-4 0  9993,2 56777  69.9988 156.5708 0003113 270.2817  89.7986 14.98331148 56910,6950.189,96.107,574.218,569.891,0.0
56777.0,STARLINK-5582,PAYLOAD,2024-06-09 04:28:53,14.9833047,0.0003085,69.999,154.5509,270.2525,89.8281,1.8076e-05,1.23e-06,0.0,0 STARLINK-5582,1 56777U 23078L   24161.18673181  .00000123  00000-0  18076-4 0  9993,2 56777  69.9990 154.5509 0003085 270.2525  89.8281 14.98330470 57292,6950.191,96.107,574.201,569.912,0.0
56777.0,STARLINK-5582,PAYLOAD,2024-06-09 09:17:17,14.98330269,0.0003074,69.9991,154.0465,269.7325,90.3482,1.8941e-05,1.33e-06,0.0,0 STARLINK-5582,1 56777U 23078L   24161.38701181  .00000133  00000-0  18941-4 0  9999,2 56777  69.9991 154.0465 0003074 269.7325  90.3482 14.98330269 57069,6950.192,96.107,574.194,569.921,0.0
56777.0,STARLINK-5582,PAYLOAD,2024-06-09 17:17:58,14.98330545,0.000309,69.999,153.2044,269.9944,90.0861,3.0526e-05,2.71e-06,0.0,0 STARLINK-5582,1 56777U 23078L   24161.72081129  .00000271  00000-0  30526-4 0  9996,2 56777  69.9990 153.2044 0003090 269.9944  90.0861 14.98330545 57110,6950.191,96.107,574.204,569.909,0.0
56777.0,STARLINK-5582,PAYLOAD,2024-06-10 09:19:18,14.98332282,0.0003077,69.9989,151.521,269.7928,90.2878,6.1286e-05,6.38e-06,0.0,0 STARLINK-5582,1 56777U 23078L   24162.38840917  .00000638  00000-0  61286-4 0  9991,2 56777  69.9989 151.5210 0003077 269.7928  90.2878 14.98332282 57478,6950.186,96.107,574.189,569.912,0.0
56777.0,STARLINK-5582,PAYLOAD,2024-06-11 09:21:19,14.98332308,0.000307,69.9988,148.9962,269.7503,90.3304,7.0134e-05,7.44e-06,0.0,0 STARLINK-5582,1 56777U 23078L   24163.38980853  .00000744  00000-0  70134-4 0  9996,2 56777  69.9988 148.9962 0003070 269.7503  90.3304 14.98332308 57365,6950.186,96.107,574.184,569.917,0.0
56777.0,STARLINK-5582,PAYLOAD,2024-06-12 04:34:56,14.98330455,0.0002968,69.999,146.9764,270.3977,89.6842,1.1941e-05,4.9e-07,0.0,0 STARLINK-5582,1 56777U 23078L   24164.19093139  .00000049  00000-0  11941-4 0  9997,2 56777  69.9990 146.9764 0002968 270.3977  89.6842 14.98330455 57745,6950.191,96.107,574.119,569.994,0.0
56777.0,STARLINK-5582,PAYLOAD,2024-06-12 06:11:04,14.98331738,0.0002902,69.9991,146.8085,269.3716,90.711,4.7362e-05,4.72e-06,0.0,0 STARLINK-5582,1 56777U 23078L   24164.25768958  .00000472  00000-0  47362-4 0  9998,2 56777  69.9991 146.8085 0002902 269.3716  90.7110 14.98331738 57496,6950.188,96.107,574.069,570.036,0.0
56777.0,STARLINK-5582,PAYLOAD,2024-06-12 07:47:11,14.9834242,0.0002746,69.9996,146.641,266.9662,93.1183,0.00016144,1.834e-05,0.0,0 STARLINK-5582,1 56777U 23078L   24164.32443909  .00001834  00000-0  16144-3 0  9998,2 56777  69.9996 146.6410 0002746 266.9662  93.1183 14.98342420 57767,6950.154,96.106,573.928,570.111,0.0
56777.0,STARLINK-5582,PAYLOAD,2024-06-13 09:25:19,14.98347138,0.0002768,69.9996,143.9476,267.8672,92.217,0.0001783,2.036e-05,0.0,0 STARLINK-5582,1 56777U 23078L   24165.39258514  .00002036  00000-0  17830-3 0  9990,2 56777  69.9996 143.9476 0002768 267.8672  92.2170 14.98347138 57929,6950.14,96.106,573.929,570.081,0.0
56777.0,STARLINK-5582,PAYLOAD,2024-06-13 15:49:51,14.98343938,0.0002942,69.9995,143.2727,268.596,91.4862,-5.8574e-05,-7.92e-06,0.0,0 STARLINK-5582,1 56777U 23078L   24165.65962926 -.00000792  00000-0 -58574-4 0  9998,2 56777  69.9995 143.2727 0002942 268.5960  91.4862 14.98343938 57701,6950.15,96.106,574.06,569.97,0.0
56777.0,STARLINK-5582,PAYLOAD,2024-06-14 07:51:14,14.98319938,0.0002586,70.0001,141.591,258.2236,101.8633,-0.00014485,-1.82e-05,0.0,0 STARLINK-5582,1 56777U 23078L   24166.32724676 -.00001820  00000-0 -14485-3 0  9996,2 56777  70.0001 141.5910 0002586 258.2236 101.8633 14.98319938 57809,6950.224,96.108,573.886,570.292,0.0
56777.0,STARLINK-5582,PAYLOAD,2024-06-15 07:53:14,14.98326305,0.0002778,69.9997,139.0643,261.3399,98.7446,-0.00017036,-2.125e-05,0.0,0 STARLINK-5582,1 56777U 23078L   24167.32864295 -.00002125  00000-0 -17036-3 0  9993,2 56777  69.9997 139.0643 0002778 261.3399  98.7446 14.98326305 57951,6950.204,96.107,574.0,570.139,0.0
56777.0,STARLINK-5582,PAYLOAD,2024-06-15 22:18:27,14.98318584,0.0003049,69.999,137.5504,265.0034,95.0777,0.00010042,1.105e-05,0.0,0 STARLINK-5582,1 56777U 23078L   24167.92948246  .00001105  00000-0  10042-3 0  9993,2 56777  69.9990 137.5504 0003049 265.0034  95.0777 14.98318584 58040,6950.228,96.108,574.212,569.974,0.0
56777.0,STARLINK-5582,PAYLOAD,2024-06-16 07:55:15,14.98324127,0.0003032,69.9991,136.5406,265.1643,94.917,0.00013854,1.56e-05,0.0,0 STARLINK-5582,1 56777U 23078L   24168.33004090  .00001560  00000-0  13854-3 0  9998,2 56777  69.9991 136.5406 0003032 265.1643  94.9170 14.98324127 58102,6950.211,96.107,574.183,569.969,0.0
56777.0,STARLINK-5582,PAYLOAD,2024-06-16 22:20:28,14.98321477,0.0002996,69.9991,135.0257,265.1881,94.8936,7.5361e-05,8.06e-06,0.0,0 STARLINK-5582,1 56777U 23078L   24168.93088771  .00000806  00000-0  75361-4 0  9996,2 56777  69.9991 135.0257 0002996 265.1881  94.8936 14.98321477 58195,6950.219,96.108,574.167,570.002,0.0
56777.0,STARLINK-5582,PAYLOAD,2024-06-17 22:22:29,14.98330247,0.0002939,69.9992,132.5011,265.6648,94.4175,5.9878e-05,6.22e-06,0.0,0 STARLINK-5582,1 56777U 23078L   24169.93228648  .00000622  00000-0  59878-4 0  9997,2 56777  69.9992 132.5011 0002939 265.6648  94.4175 14.98330247 58342,6950.192,96.107,574.1,570.014,0.0
56777.0,STARLINK-5582,PAYLOAD,2024-06-18 07:59:17,14.98333679,0.000292,69.9993,131.4913,265.5046,94.578,7.6641e-05,8.22e-06,0.0,0 STARLINK-5582,1 56777U 23078L   24170.33284355  .00000822  00000-0  76641-4 0  9999,2 56777  69.9993 131.4913 0002920 265.5046  94.5780 14.98333679 58663,6950.182,96.107,574.076,570.017,0.0
56777.0,STARLINK-5582,PAYLOAD,2024-06-18 14:23:50,14.98331034,0.0002904,69.9994,130.8179,266.0883,93.9944,5.3056e-05,5.4e-06,0.0,0 STARLINK-5582,1 56777U 23078L   24170.59988540  .00000540  00000-0  53056-4 0  9996,2 56777  69.9994 130.8179 0002904 266.0883  93.9944 14.98331034 58442,6950.19,96.107,574.073,570.036,0.0
56777.0,STARLINK-5582,PAYLOAD,2024-06-19 06:25:10,14.98331105,0.0002871,69.9994,129.1346,268.4489,91.6341,7.0253e-05,7.45e-06,0.0,0 STARLINK-5582,1 56777U 23078L   24171.26748488  .00000745  00000-0  70253-4 0  9991,2 56777  69.9994 129.1346 0002871 268.4489  91.6341 14.98331105 58546,6950.189,96.107,574.05,570.059,0.0
56777.0,STARLINK-5582,PAYLOAD,2024-06-19 20:50:23,14.98329199,0.0002722,69.9997,127.6199,267.188,92.8968,-9.5365e-06,-2.07e-06,0.0,0 STARLINK-5582,1 56777U 23078L   24171.86832826 -.00000207  00000-0 -95365-5 0  9994,2 56777  69.9997 127.6199 0002722 267.1880  92.8968 14.98329199 58890,6950.195,96.107,573.952,570.169,0.0
56777.0,STARLINK-5582,PAYLOAD,2024-06-19 22:26:31,14.9832956,0.0002739,69.9997,127.4516,266.7965,93.2881,-2.8205e-05,-4.29e-06,0.0,0 STARLINK-5582,1 56777U 23078L   24171.93508842 -.00000429  00000-0 -28205-4 0  9994,2 56777  69.9997 127.4516 0002739 266.7965  93.2881 14.98329560 58642,6950.194,96.107,573.963,570.156,0.0
56777.0,STARLINK-5582,PAYLOAD,2024-06-20 06:27:11,14.98329226,0.0002781,69.9996,126.6098,267.9946,92.0895,-6.8535e-06,-1.75e-06,0.0,0 STARLINK-5582,1 56777U 23078L   24172.26888816 -.00000175  00000-0 -68535-5 0  9992,2 56777  69.9996 126.6098 0002781 267.9946  92.0895 14.98329226 58692,6950.195,96.107,573.993,570.127,0.0
56777.0,STARLINK-5582,PAYLOAD,2024-06-20 22:28:32,14.98329071,0.0002854,69.9995,124.9267,268.636,91.4472,6.6391e-06,-1.4e-07,0.0,0 STARLINK-5582,1 56777U 23078L   24172.93648768 -.00000014  00000-0  66391-5 0  9995,2 56777  69.9995 124.9267 0002854 268.6360  91.4472 14.98329071 59052,6950.196,96.107,574.044,570.077,0.0
56777.0,STARLINK-5582,PAYLOAD,2024-06-21 06:29:12,14.98331832,0.0002807,69.9996,124.0849,267.8641,92.2197,1.2702e-05,5.9e-07,0.0,0 STARLINK-5582,1 56777U 23078L   24173.27028578  .00000059  00000-0  12702-4 0  9998,2 56777  69.9996 124.0849 0002807 267.8641  92.2197 14.98331832 58848,6950.187,96.107,574.003,570.101,0.0
56777.0,STARLINK-5582,PAYLOAD,2024-06-21 22:30:33,14.98326354,0.0002838,69.9996,122.4017,268.9659,91.1175,1.6598e-05,1.05e-06,0.0,0 STARLINK-5582,1 56777U 23078L   24173.93788965  .00000105  00000-0  16598-4 0  9993,2 56777  69.9996 122.4017 0002838 268.9659  91.1175 14.98326354 58940,6950.204,96.107,574.042,570.097,0.0
56777.0,STARLINK-5582,PAYLOAD,2024-06-22 03:18:57,14.98326214,0.0002845,69.9996,121.8966,268.9192,91.1641,1.4009e-05,7.4e-07,0.0,0 STARLINK-5582,1 56777U 23078L   24174.13817025  .00000074  00000-0  14009-4 0  9996,2 56777  69.9996 121.8966 0002845 268.9192  91.1641 14.98326214 59232,6950.205,96.107,574.047,570.092,0.0
56777.0,STARLINK-5582,PAYLOAD,2024-06-22 06:31:13,14.98327562,0.0002829,69.9997,121.56,268.8166,91.2668,2.8712e-05,2.5e-06,0.0,0 STARLINK-5582,1 56777U 23078L   24174.27168925  .00000250  00000-0  28712-4 0  9991,2 56777  69.9997 121.5600 0002829 268.8166  91.2668 14.98327562 58996,6950.2,96.107,574.032,570.099,0.0
56777.0,STARLINK-5582,PAYLOAD,2024-06-22 22:32:34,14.9833143,0.0002847,69.9997,119.8776,266.3258,93.7575,2.8767e-05,2.5e-06,0.0,0 STARLINK-5582,1 56777U 23078L   24174.93928706  .00000250  00000-0  28767-4 0  9995,2 56777  69.9997 119.8776 0002847 266.3258  93.7575 14.98331430 59090,6950.188,96.107,574.032,570.075,0.0
